{
    "CCSDS_OMM_VERS": "3.0",
    "COMMENT": "GENERATED VIA SPACE-TRACK.ORG API",
    "CREATION_DATE": "2025-11-24T07:36:20",
    "ORIGINATOR": "18 SPCS",
    "OBJECT_NAME": "COSMOS 2569 (GLONASS)",
    "OBJECT_ID": "2023-114A",
    "CENTER_NAME": "EARTH",
    "REF_FRAME": "TEME",
    "TIME_SYSTEM": "UTC",
    "MEAN_ELEMENT_THEORY": "SGP4",
    "EPOCH": "2025-11-24T04:30:54.756000",
    "MEAN_MOTION": "2.13103968",
    "ECCENTRICITY": "0.00097730",
    "INCLINATION": "65.1844",
    "RA_OF_ASC_NODE": "79.5405",
    "ARG_OF_PERICENTER": "286.9832",
    "MEAN_ANOMALY": "72.9114",
    "EPHEMERIS_TYPE": "0",
    "CLASSIFICATION_TYPE": "U",
    "NORAD_CAT_ID": "57517",
    "ELEMENT_SET_NO": "999",
    "REV_AT_EPOCH": "1789",
    "BSTAR": "0.00000000000000",
    "MEAN_MOTION_DOT": "0.00000010",
    "MEAN_MOTION_DDOT": "0.0000000000000",
    "SEMIMAJOR_AXIS": "25507.867",
    "PERIOD": "675.727",
    "APOAPSIS": "19154.661",
    "PERIAPSIS": "19104.804",
    "OBJECT_TYPE": "PAYLOAD",
    "RCS_SIZE": "LARGE",
    "COUNTRY_CODE": "CIS",
    "LAUNCH_DATE": "2023-08-07",
    "SITE": "PKMTR",
    "DECAY_DATE": null,
    "FILE": "4897245",
    "GP_ID": "303373786",
    "TLE_LINE0": "0 COSMOS 2569 (GLONASS)",
    "TLE_LINE1": "1 57517U 23114A   25328.18813375  .00000010  00000-0  00000+0 0  9992",
    "TLE_LINE2": "2 57517  65.1844  79.5405 0009773 286.9832  72.9114  2.13103968 17891"
}